GPS BIIR-2  (PRN 13)    
1 24876U 97035A   25081.48695153  .00000039  00000+0  00000+0 0  9998
2 24876  55.7705 116.2445 0087640  53.8192 307.0566  2.00562631202897
GPS BIIR-4  (PRN 20)    
1 26360U 00025A   25081.87285500 -.00000045  00000+0  00000+0 0  9993
2 26360  54.8791  37.5527 0037897 231.7173 137.1436  2.00557077182223
GPS BIIR-5  (PRN 22)    
1 26407U 00040A   25080.82810833  .00000044  00000+0  00000+0 0  9997
2 26407  54.9678 233.1364 0134201 298.5466 234.0862  2.00564484180875
GPS BIIR-8  (PRN 16)    
1 27663U 03005A   25081.40691455  .00000042  00000+0  00000+0 0  9996
2 27663  55.0031 232.9237 0143447  49.8976 321.1255  2.00559053162258
GPS BIIR-11 (PRN 19)    
1 28190U 04009A   25081.42544700  .00000010  00000+0  00000+0 0  9994
2 28190  55.2127 293.8938 0102008 157.5480  22.2351  2.00569998153885
GPS BIIR-13 (PRN 02)    
1 28474U 04045A   25081.32682215 -.00000078  00000+0  00000+0 0  9997
2 28474  55.3532 343.0651 0163898 301.4497 225.3987  2.00657918149362
GPS BIIRM-1 (PRN 17)    
1 28874U 05038A   25081.64793044  .00000016  00000+0  00000+0 0  9993
2 28874  55.2573 291.3553 0133255 289.6404  76.9757  2.00566444142771
GPS BIIRM-2 (PRN 31)    
1 29486U 06042A   25081.90636131  .00000000  00000+0  00000+0 0  9994
2 29486  54.6792 169.2426 0104304  45.4387  48.0467  2.00567560135343
GPS BIIRM-3 (PRN 12)    
1 29601U 06052A   25081.70524251  .00000039  00000+0  00000+0 0  9993
2 29601  55.0424 231.9105 0087518  85.2812 275.6916  2.00557888134351
GPS BIIRM-4 (PRN 15)    
1 32260U 07047A   25081.51611515  .00000036  00000+0  00000+0 0  9999
2 32260  53.7721  98.7200 0159113  80.0528 281.7914  2.00551089127753
GPS BIIRM-5 (PRN 29)    
1 32384U 07062A   25082.10722987  .00000016  00000+0  00000+0 0  9993
2 32384  55.4022 292.2422 0029852 153.5564  42.9899  2.00562836126527
GPS BIIRM-6 (PRN 07)    
1 32711U 08012A   25081.42653172  .00000001  00000+0  00000+0 0  9990
2 32711  54.4566 167.9581 0195770 242.0025 116.0437  2.00555965124698
GPS BIIRM-8 (PRN 05)    
1 35752U 09043A   25081.92533353 -.00000028  00000+0  00000+0 0  9996
2 35752  55.9012  45.2299 0054132  74.9550 296.1831  2.00552691114312
GPS BIIF-1  (PRN 25)    
1 36585U 10022A   25081.72819596  .00000033  00000+0  00000+0 0  9999
2 36585  54.3626 226.7560 0121574  63.7952 285.5310  2.00565522108533
GPS BIIF-3  (PRN 24)    
1 38833U 12053A   25082.10729904  .00000003  00000+0  00000+0 0  9996
2 38833  53.5284 162.0677 0163404  59.9710 301.6874  2.00561879 91289
GPS BIIF-4  (PRN 27)    
1 39166U 13023A   25080.97270257  .00000018  00000+0  00000+0 0  9995
2 39166  54.8728 287.3531 0133037  46.9976 314.1402  2.00561778 86812
GPS BIIF-5  (PRN 30)    
1 39533U 14008A   25081.47076299  .00000000  00000+0  00000+0 0  9994
2 39533  53.6077 167.7350 0076885 223.3308 136.1022  2.00558245 80629
GPS BIIF-6  (PRN 06)    
1 39741U 14026A   25080.75822161 -.00000083  00000+0  00000+0 0  9994
2 39741  56.6682 349.1073 0036532 318.9365  40.8238  2.00580405 79465
GPS BIIF-7  (PRN 09)    
1 40105U 14045A   25081.33803577  .00000039  00000+0  00000+0 0  9996
2 40105  55.0688 106.4914 0028034 118.1390 242.2032  2.00555252 77015
GPS BIIF-8  (PRN 03)    
1 40294U 14068A   25082.20640218 -.00000019  00000+0  00000+0 0  9997
2 40294  56.6569  48.3828 0056857  63.7119 296.8669  2.00577584 76141
GPS BIIF-9  (PRN 26)    
1 40534U 15013A   25081.85082061  .00000027  00000+0  00000+0 0  9999
2 40534  53.2603 222.8520 0097672  34.6453 325.9585  2.00548450 72772
GPS BIIF-10 (PRN 08)    
1 40730U 15033A   25081.51239498  .00000022  00000+0  00000+0 0  9995
2 40730  54.3531 285.6672 0104624  24.0874 336.4271  2.00552635 70938
GPS BIIF-11 (PRN 10)    
1 41019U 15062A   25081.06933100 -.00000023  00000+0  00000+0 0  9991
2 41019  56.6334  48.2828 0102986 228.6200 130.4874  2.00566795 68766
GPS BIIF-12 (PRN 32)    
1 41328U 16007A   25081.65350462  .00000042  00000+0  00000+0 0  9993
2 41328  55.2549 107.3825 0087236 241.7678 117.4075  2.00573853 66782
GPS BIII-1  (PRN 04)    
1 43873U 18109A   25081.54072575  .00000041  00000+0  00000+0 0  9998
2 43873  55.4203 110.0233 0033262 197.4748 335.1982  2.00566682 46019
GPS BIII-2  (PRN 18)    
1 44506U 19056A   25081.95280108 -.00000080  00000+0  00000+0 0  9996
2 44506  55.8034 349.0515 0049288 193.7628 178.4511  2.00561014 41023
GPS BIII-3  (PRN 23)    
1 45854U 20041A   25081.71122260 -.00000025  00000+0  00000+0 0  9996
2 45854  56.3523  46.5148 0051358 199.7750 300.4060  2.00568156 34980
GPS BIII-4  (PRN 14)    
1 46826U 20078A   25081.79391329  .00000034  00000+0  00000+0 0  9997
2 46826  54.0871 229.0907 0055719 199.2767 331.3227  2.00558654 32450
GPS BIII-5  (PRN 11)    
1 48859U 21054A   25081.59252480 -.00000083  00000+0  00000+0 0  9997
2 48859  55.3345 350.5880 0018586 230.0868 344.0966  2.00569211 27697
GPS BIII-6  (PRN 28)    
1 55268U 23009A   25055.80589204  .00000001  00000+0  00000+0 0  9992
2 55268  55.0899 167.2640 0000971  39.5557 308.9006  2.00545614 15662
GPS BIII-7  (PRN 01)    
1 62339U 24242A   25080.43401963 -.00000087  00000+0  00000+0 0  9996
2 62339  54.9886 352.5149 0004815 329.0533 247.7113  2.00557116  2179
